[ {"name": "STARLINK-3712", "line1": "1 52090U 22029C   26093.38819339  .00004060  00000+0  27309-3 0  9998", "line2": "2 52090  53.2183 338.2440 0001341  87.0711 273.0435 15.08830475224381"}, {"name": "STARLINK-3716", "line1": "1 52092U 22029E   26093.12690783  .00001826  00000+0  13277-3 0  9998", "line2": "2 52092  53.2179 339.4170 0001375  87.9367 272.1782 15.08843258224348"}, {"name": "STARLINK-3673", "line1": "1 52093U 22029F   26093.64674937  .00000938  00000+0  76979-4 0  9991", "line2": "2 52093  53.2155 337.0956 0001297  89.4176 270.6964 15.08842844224421"}, {"name": "STARLINK-3714", "line1": "1 52094U 22029G   26093.64947754  .00000204  00000+0  30921-4 0  9995", "line2": "2 52094  53.2176 337.0732 0001585  76.4398 283.6771 15.08837719224424"}, {"name": "STARLINK-3701", "line1": "1 52095U 22029H   26093.63844521  .00012117  00000+0  77753-3 0  9992", "line2": "2 52095  53.2200 337.1244 0001675  86.2324 273.8860 15.08866450224424"}, {"name": "STARLINK-3717", "line1": "1 52096U 22029J   26093.02111526  .00000876  00000+0  73145-4 0  9999", "line2": "2 52096  53.2200 329.8944 0001448  86.5848 273.5310 15.08835703224459"}, {"name": "STARLINK-3665", "line1": "1 52098U 22029L   26093.64212961 -.00001761  00000+0 -92635-4 0  9995", "line2": "2 52098  53.2199 337.1060 0001449  87.9023 272.2136 15.08823524224427"}, {"name": "STARLINK-3702", "line1": "1 52100U 22029N   26093.63476284 -.00001332  00000+0 -65592-4 0  9994", "line2": "2 52100  53.2190 337.1365 0002011  85.1392 274.9829 15.08832259224428"}, {"name": "STARLINK-3703", "line1": "1 52101U 22029P   26093.64582524 -.00000916  00000+0 -39441-4 0  9992", "line2": "2 52101  53.2181 337.2815 0001461  93.0927 267.0232 15.08840240224419"}, {"name": "STARLINK-3709", "line1": "1 52102U 22029Q   26093.63662926  .00001235  00000+0  95663-4 0  9998", "line2": "2 52102  53.2194 327.1315 0002051  84.4275 275.6951 15.08851404224555"}, {"name": "STARLINK-3705", "line1": "1 52103U 22029R   26093.34495306  .00001033  00000+0  83010-4 0  9992", "line2": "2 52103  53.2187 328.4365 0001424  88.0293 272.0863 15.08842146224501"}, {"name": "STARLINK-3706", "line1": "1 52105U 22029T   26093.60351961 -.00002099  00000+0 -11381-3 0  9997", "line2": "2 52105  53.2176 327.2777 0002253  80.6194 279.5053 15.08831336224540"}, {"name": "STARLINK-3670", "line1": "1 52106U 22029U   26093.09376606  .00004373  00000+0  29245-3 0  9997", "line2": "2 52106  53.2186 339.5652 0001450  88.0073 272.1085 15.08865954224330"}, {"name": "STARLINK-3658", "line1": "1 52107U 22029V   26092.93646710  .00000487  00000+0  48697-4 0  9991", "line2": "2 52107  53.2186 330.2716 0001343  86.9362 273.1783 15.08844827224443"}, {"name": "STARLINK-3698", "line1": "1 52108U 22029W   26093.34127130  .00000273  00000+0  35245-4 0  9996", "line2": "2 52108  53.2183 328.4538 0001319  91.0435 269.0709 15.08840006224507"}, {"name": "STARLINK-3687", "line1": "1 52110U 22029Y   26092.94015113  .00001853  00000+0  13447-3 0  9995", "line2": "2 52110  53.2186 330.2560 0001319  88.2329 271.8815 15.08841916224442"}, {"name": "STARLINK-3708", "line1": "1 52111U 22029Z   26093.38911507  .00004312  00000+0  28873-3 0  9999", "line2": "2 52111  53.2170 328.2403 0001351  89.7749 270.3399 15.08857099224515"}, {"name": "STARLINK-3734", "line1": "1 52112U 22029AA  26093.61919686  .00048553  00000+0  27368-2 0  9994", "line2": "2 52112  53.2187 326.7605 0002094 283.5970  76.4790 15.12742709224556"}, {"name": "STARLINK-3736", "line1": "1 52113U 22029AB  26093.64671300  .00001911  00000+0  13816-3 0  9997", "line2": "2 52113  53.2180 327.0873 0001382  87.4440 272.6711 15.08834279224555"}, {"name": "STARLINK-3737", "line1": "1 52114U 22029AC  26093.65775644  .00000245  00000+0  33488-4 0  9992", "line2": "2 52114  53.2188 327.0331 0001319  91.0058 269.1085 15.08835607224550"}, {"name": "STARLINK-3685", "line1": "1 52115U 22029AD  26093.63935988 -.00004264  00000+0 -24990-3 0  9994", "line2": "2 52115  53.2184 327.1201 0001469  84.7950 275.3210 15.08853713224557"}, {"name": "STARLINK-3735", "line1": "1 52116U 22029AE  26093.65040055 -.00001991  00000+0 -10704-3 0  9991", "line2": "2 52116  53.2178 327.0666 0001749  92.2544 267.8649 15.08827757224550"}, {"name": "STARLINK-3738", "line1": "1 52117U 22029AF  26093.63199639  .00002910  00000+0  20090-3 0  9992", "line2": "2 52117  53.2170 327.1520 0001585  89.6937 270.4237 15.08824541224569"}, {"name": "STARLINK-3743", "line1": "1 52118U 22029AG  26093.37806833  .00001358  00000+0  10339-3 0  9995", "line2": "2 52118  53.2185 328.2930 0001385  84.8338 275.2813 15.08848998224513"}, {"name": "STARLINK-3558", "line1": "1 52119U 22029AH  26093.35967289  .00001581  00000+0  11739-3 0  9990", "line2": "2 52119  53.2196 328.3768 0001525  89.1400 270.9767 15.08840665224513"}, {"name": "STARLINK-3534", "line1": "1 52120U 22029AJ  26093.63567542 -.00003225  00000+0 -18467-3 0  9995", "line2": "2 52120  53.2162 327.1362 0001469  77.8627 282.2529 15.08828750224565"}, {"name": "STARLINK-3678", "line1": "1 52121U 22029AK  26093.01099388  .00000782  00000+0  67240-4 0  9993", "line2": "2 52121  53.2182 319.9397 0001359  85.8433 274.2714 15.08839941224591"}, {"name": "STARLINK-3726", "line1": "1 52122U 22029AL  26093.62832447 -.00000929  00000+0 -40316-4 0  9992", "line2": "2 52122  53.2185 327.1685 0001334  84.5696 275.5448 15.08829373224558"}, {"name": "STARLINK-3725", "line1": "1 52123U 22029AM  26093.64857333  .00002893  00000+0  19990-3 0  9999", "line2": "2 52123  53.2153 316.9004 0001509  89.0449 271.0716 15.08818237224708"}, {"name": "STARLINK-3727", "line1": "1 52125U 22029AP  26092.93371404  .00001832  00000+0  13318-3 0  9992", "line2": "2 52125  53.2174 320.2876 0001887 105.6090 254.5110 15.08845137224594"}, {"name": "STARLINK-3732", "line1": "1 52126U 22029AQ  26092.94107626  .00000469  00000+0  47566-4 0  9995", "line2": "2 52126  53.2187 320.2542 0001414  87.3507 272.7647 15.08837300224583"}, {"name": "STARLINK-3715", "line1": "1 52127U 22029AR  26093.32747585  .00000075  00000+0  22830-4 0  9993", "line2": "2 52127  53.2207 318.5203 0001444  94.6336 265.4821 15.08838984224644"}, {"name": "STARLINK-3661", "line1": "1 52129U 22029AT  26093.58509381  .00012504  00000+0  80345-3 0  9997", "line2": "2 52129  53.2201 317.3653 0001329 110.6019 249.5116 15.08786873224699"}, {"name": "STARLINK-3711", "line1": "1 52131U 22029AV  26093.58867789  .00028979  00000+0  15325-2 0  9997", "line2": "2 52131  53.2147 314.6347 0000831 103.4918 256.6170 15.15265067224735"}, {"name": "STARLINK-3718", "line1": "1 52132U 22029AW  26093.65500393 -.00001646  00000+0 -85374-4 0  9998", "line2": "2 52132  53.2201 317.0500 0001516  89.2872 270.8294 15.08829449224700"}, {"name": "STARLINK-3707", "line1": "1 52133U 22029AX  26093.64027420 -.00005355  00000+0 -31844-3 0  9996", "line2": "2 52133  53.2149 317.1128 0001338  96.9774 263.1370 15.08860970224701"}, {"name": "STARLINK-3721", "line1": "1 52134U 22029AY  26093.64395673  .00000460  00000+0  46978-4 0  9990", "line2": "2 52134  53.2170 317.0978 0001280  89.8861 270.2278 15.08838228224709"}, {"name": "STARLINK-3729", "line1": "1 52135U 22029AZ  26093.63018874  .00000587  00000+0  54939-4 0  9991", "line2": "2 52135  53.2186 317.1689 0001552  98.1554 261.9615 15.08843476224704"}, {"name": "STARLINK-3720", "line1": "1 52136U 22029BA  26093.63659226  .00000612  00000+0  56539-4 0  9991", "line2": "2 52136  53.2178 317.1266 0001890  87.2983 272.8225 15.08840729224703"}, {"name": "STARLINK-3733", "line1": "1 52137U 22029BB  26093.62555499 -.00000587  00000+0 -18808-4 0  9998", "line2": "2 52137  53.2190 317.1745 0001540  99.9318 260.1849 15.08839819224704"}, {"name": "STARLINK-3723", "line1": "1 52138U 22029BC  26093.63291570 -.00000453  00000+0 -10376-4 0  9991", "line2": "2 52138  53.2189 317.1432 0001557  96.2811 263.8359 15.08840220224706"}, {"name": "STARLINK-3730", "line1": "1 52139U 22029BD  26093.34863167  .00001469  00000+0  11034-3 0  9994", "line2": "2 52139  53.2169 328.4218 0001422  84.9514 275.1641 15.08843220224519"}, {"name": "STARLINK-3682", "line1": "1 52140U 22029BE  26093.35691193  .00000485  00000+0  48552-4 0  9998", "line2": "2 52140  53.2181 318.3826 0001429  79.7899 280.3254 15.08842382224665"}, {"name": "STARLINK-3761", "line1": "1 52262U 22041B   26093.02202206  .00001532  00000+0  11434-3 0  9996", "line2": "2 52262  53.2198 359.8396 0001503  88.2644 271.8521 15.08841189218036"}, {"name": "STARLINK-3786", "line1": "1 52263U 22041C   26093.42314035  .00001865  00000+0  13519-3 0  9990", "line2": "2 52263  53.2201 358.0882 0001389  93.6412 266.4739 15.08852481218092"}, {"name": "STARLINK-3795", "line1": "1 52264U 22041D   26093.15082793  .00001438  00000+0  10838-3 0  9991", "line2": "2 52264  53.2192 359.3095 0001578  92.9220 267.1953 15.08845864218050"}, {"name": "STARLINK-3740", "line1": "1 52265U 22041E   26093.14716534 -.00002268  00000+0 -12449-3 0  9992", "line2": "2 52265  53.2201 359.3257 0001545 103.7371 256.3793 15.08834664218052"}, {"name": "STARLINK-3739", "line1": "1 52266U 22041F   26093.14345911  .00002561  00000+0  17886-3 0  9994", "line2": "2 52266  53.2191 359.3410 0001355  94.5425 265.5722 15.08856580218053"}, {"name": "STARLINK-3748", "line1": "1 52267U 22041G   26093.00731416  .00002079  00000+0  14868-3 0  9990", "line2": "2 52267  53.2194 359.9619 0001329  92.5830 267.5314 15.08841238218034"}, {"name": "STARLINK-3746", "line1": "1 52268U 22041H   26093.45258026  .00002317  00000+0  16360-3 0  9995", "line2": "2 52268  53.2192 357.8783 0001315  86.8202 273.2941 15.08849202218103"}, {"name": "STARLINK-3791", "line1": "1 52269U 22041J   26093.46731450  .00001391  00000+0  10545-3 0  9994", "line2": "2 52269  53.2187 357.8890 0001808  94.4484 265.6714 15.08843569218104"}, {"name": "STARLINK-3804", "line1": "1 52270U 22041K   26093.45996188  .00000142  00000+0  26987-4 0  9997", "line2": "2 52270  53.2205 357.9509 0001472  79.0709 281.0449 15.08837924218106"}]